IM_Barcode,Numeric_IM_Barcode,Endorsement_Line,Full_Name,Business,Address_Line_1,Address_Line_2,City,State,ZIP Code,Sort_Position,Bundle_Number,Break_Mark,Tray_Number
DADDFDDAFFTTFTTTTFTFAFATFDDDDAAATADFFDADDFFDDDFDAATDDDADDFTTFDTFD,2.02619E+30,*************SCH 5-DIGIT 43015 FSSD,Mr. David Bamford,,560 Buehler Dr.,,Delaware,OH,43015-1000,1,1,##,1
ADDFDTFADTFFDAADAAFADDADFAADFTFDTDTFFATAATATTDFFFTDAAFFFTDFAFADAT,2.02619E+30,*************SCH 5-DIGIT 43015 FSSD,Mr. and Mrs. Michael B. McArtor,,163 Lexington Blvd.,,Delaware,OH,43015-1073,2,1,,1
ADFFFAFAAFFADTFFAAADDTTATADTFDADFFAAATTATADAAFTAFDDFFFFATFDDDAAFD,2.02619E+30,*************SCH 5-DIGIT 43015 FSSD,Mrs. Linda L. Sekulich,,573 Rutherford Ave.,,Delaware,OH,43015-1147,3,1,,1
TDFDATFTFDAATTDDDATDDTFDTTFFADFTADDATDDTTTDATDAFATDFTAAATTATTAADD,2.02619E+30,*************SCH 5-DIGIT 43015 FSSD,Ms. Cheryl S. Harris,,558 Rutherford Ave.,,Delaware,OH,43015-1155,4,1,,1
TTFATADTAATTFFFDAFDTFAADFDTDAAAFADAATDAAFTFDAFAAAADAFDTTDDATDDTTA,2.02619E+30,*************SCH 5-DIGIT 43015 FSSD,Mr. Clarence W. Gabbert,,15 Mason Ave.,,Delaware,OH,43015-1234,5,1,,1
FTTDTTTTADDFFFFFFDDDFFTAFDFDDADATDDDFFFTDFDAAAAADAFFFDTDFDAAFDATD,2.02619E+30,*************SCH 5-DIGIT 43015 FSSD,Ms. Ann L. Davis,,34 Spencer St.,,Delaware,OH,43015-1237,6,1,,1
AATAAFDFDTTFFDTADFDFAFAADFDFTAAAFTDTTDFDFTAAFTDDTFTDDDFDFAATADTFA,2.02619E+30,*************SCH 5-DIGIT 43015 FSSC,Mr. Donald L. Anspaugh,,356 N. Washington St.,,Delaware,OH,43015-1240,7,1,,1
DTFFFTDFTFAFFDFFDATDFDDDADFADFTDDFDTDTDTTDTAAAFATFTAAFTDTDDAFFTAA,2.02619E+30,*************SCH 5-DIGIT 43016 FSSD,Mr. Michael Lowe,"State Highway Supply, Inc.",PO Box 3098,,Dublin,OH,43016-0048,347,8,##,2
DTFDATFAAFDTDFDFDATFDFTAFATDDDFTFDFTAFATTDAFTDFFATTATFTFDADTTTTDT,2.02619E+30,*************SCH 5-DIGIT 43016 FSSC,"Mr. Tej Shah Rph, Pharm. D.",Walgreens,6175 Shamrock Ct. STE. B,,Dublin,OH,43016-1200,348,8,,2
FTFDTTAAAATTTTADFATFTATATTAADTATAFTFDFAAAATDATAATTFAAFAFFTDDATADF,2.02619E+30,*************SCH 5-DIGIT 43016 FSSC,Mr. Kurt Lewis,"United Healthcare of Ohio, Inc.",5900 Parkwood Pl.,,Dublin,OH,43016-1216,349,8,,2
TTATTAAFDDTFFTDDDADDAAAADTAAFFTTAFDATDATTDDTADDFTDAFFFDDDAATFDTAT,2.02619E+30,*************SCH 5-DIGIT 43016 FSSC,Mr. Jamie Johnston,"Air Force One, Inc.",5800 Shier Rings Rd.,,Dublin,OH,43016-1236,350,8,,2
TFFFADTDTTFFAATTTDFFFTDATFADFAAADAFFATDDDAFAFDATDFFDATDTTATAFFADD,2.02619E+30,*************SCH 5-DIGIT 43016 FSSC,Mr. Greg Guy,"Air Force One, Inc.",5800 Shier Rings Rd.,,Dublin,OH,43016-1236,351,8,,2
ATTAFTAATDTTTAADTTDDDAADFATATTFTFDDTFTATTTTFTFFADDFAFAFAFATFATFTA,2.02619E+30,*************SCH 5-DIGIT 43016 FSSC,Ms. Heather Dewees,,5658 Wilcox Rd.,,Dublin,OH,43016-1255,352,8,,2
ADADAADDDAADFDFDADDAFTDADDADTFFFFFDAADDTFFTFADDAFAAFTDTDAFFFAFTDT,2.02619E+30,*************SCH 5-DIGIT 43016 FSSC,Mr. and Mrs. Colin M. Niemeier,,5560 Newtonmore Pl.,,Dublin,OH,43016-1371,353,8,,2
DFFFFDDTTDATFATTTDDAFTDFDDAAFAAAFTFAADTDFFFADFTDAFTTTTDDAAFDDFDDA,2.02619E+30,*************SCH 5-DIGIT 43016 FSSC,Ms. Terri Huesman,Osteopathic Heritage Foundations,6785 Bobcat Way STE. 200,,Dublin,OH,43016-1443,354,8,,2
FDTTDADTAAADFDTDFDFAFADDAFTTDFAFDFDDTFTAAAFDTTTATATFDDATADDDTFTAD,2.02619E+30,*************SCH 5-DIGIT 43016 FSSC,Mr. and Mrs. H. J. Conway,,4312 Hanna Hills Dr.,,Dublin,OH,43016-9518,758,15,,2
FFDAFFDDFDFTFAATAFTFFAFFADADTFDATTFATFTFTFFFFDATTFFDFDTTATFADFADF,2.02619E+30,*************SCH 5-DIGIT 43016 FSSC,Mrs. Heather S. Harber,,4380 Hanna Hills Dr.,,Dublin,OH,43016-9518,759,15,,2
AFDFADDFATFAFAFTFDFDFADDAFDFAAFFDATFFADFAFAFFTATTFATTTADTFDDDFFTA,2.02619E+30,*************SCH 5-DIGIT 43016 FSSC,Ms. Kelli Joyce,,4284 Hanna Hills Dr.,,Dublin,OH,43016-9518,760,15,,2
DDDDAADFATADAFFFDFFTFAADFDAAAADAFDFDDTDAAFTFATDFDAAFFDDTAFDFDFTFA,2.02619E+30,*************SCH 5-DIGIT 43016 FSSC,Mr. and Mrs. Bernard W. Esker II,,2228 Gnarled Pine Dr.,,Dublin,OH,43016-9533,761,15,,2
AFATAFTDATFDAAAADFFDAAADTDAATAFADAAATDDFTDDTFDDDTFFDTTFDATTTFFAFD,2.02619E+30,*************SCH 5-DIGIT 43016 FSSC,Mr. Ahmet S. Ayan,,7788 Seddon Dr.,,Dublin,OH,43016-9540,762,15,,2
TATFAFFTTFTFTAAAATATDDATATTDATFTFAFTDDADFAFFFAADDDDTDFAAFTFTATFFF,2.02619E+30,*************SCH 5-DIGIT 43016 FSSC,Mr. and Mrs. H. Richard Vance,,2059 Stancrest Rd.,,Dublin,OH,43016-9548,763,16,##,3
FFFAADTFDFADFTDATFATFFDFADATTFAATATDATTFTTTTDATTFADDATTDTFTDAFATD,2.02619E+30,*************SCH 5-DIGIT 43016 FSSC,,Curb Appeal,2089 Stancrest Rd.,,Dublin,OH,43016-9548,764,16,,3
FDATFADDFAFADTADDDFTDAFTTDADTDTADDDATFDAAFFDAAAATAFFDTFAATFFAAADD,2.02619E+30,*************SCH 5-DIGIT 43016 FSSC,Ms. Erin White,,7675 Southwick Dr.,,Dublin,OH,43016-9562,765,16,,3
ATFDFTFFFADDDTAFTTDATTADAATATDADTFAFADAAFTATTATFATFAFFFADTDFDTTDD,2.02619E+30,*************SCH 5-DIGIT 43016 FSSC,Mr. Matt Colvin,Victaulic Fire,2144 Stowmont Ct.,,Dublin,OH,43016-9563,766,16,,3
AFFTADDAFTATDDATTFAFTFFFAFFFDDDADTDTTDTDTTDAFTTTAADTTTDFTTFTAAADF,2.02619E+30,*************SCH 5-DIGIT 43016 FSSC,Vishu N. Sharma,,7645 Starmont Ct.,,Dublin,OH,43016-9565,767,16,,3
TTFADTATFDDDDTTFFTAADTTDTAAFDTFTAFTFDDATDDFDAATFATFATFFFDAFATTAFD,2.02619E+30,*************SCH 5-DIGIT 43016 FSSC,Mr. and Mrs. Gene J. Castelli,,7673 Starmont Ct.,,Dublin,OH,43016-9565,768,16,,3
TTDTFTAFFADFFTTFAADFFTDTTATAAAFTDDDTFTFADATDTTTATTTFDATTDFATDDFDD,2.02619E+30,*************SCH 5-DIGIT 43016 FSSC,Mr. Bill Grindle,,2193 Shadmill Ct.,,Dublin,OH,43016-9566,769,16,,3
TFTDAFFTFDAFDTFTAFFTAAFFFDDDDDFTDFDFTADTAFTTTTTFTDADTADDFFAADTDDT,2.02619E+30,*************SCH 5-DIGIT 43016 FSSD,Mr. Benjamin Buckner,Urban One,2400 Corporate Exchange Dr. STE. 200,,Columbus,OH,43231-7669,836,17,,3
TFAAATATADFDFAFDDFDTDAFAAFDTFDDTTFTAAADFAAAFDTDAFDFADADTDATADTAAT,2.02619E+30,*************SCH 5-DIGIT 43016 FSSD,Mr. Yaves Ellis,Urban One,2400 Corporate Exchange Dr. STE. 200,,Columbus,OH,43231-7669,837,17,,3
TDAFDAFTFTADAATFFDFATADDFDTFFAFTDATTTFTDTAFFFAATFTFAFFFADTATFDDTD,2.02619E+30,*************SCH 5-DIGIT 43016 FSSD,Ms. Paula Mathis,Molina Healthcare,3000 Corporate Exchange Dr. STE. 100,,Columbus,OH,43231-7689,838,17,,3
TAFTFTDAADDDFTDFAADTDTADAATTFDDAAFADAAFDDDDDFADAAAAAATFDTDTAFAFFT,2.02619E+30,*************SCH 5-DIGIT 43016 FSSD,Ms. Ami Cole,Molina Healthcare,3000 Corporate Exchange Dr. STE. 100,,Columbus,OH,43231-7689,839,17,,3
FAFFDDTFTADADTATTTADFTTDATAFADFFDFTDADAAFDAATFDFDAFTDTADTAFAFAAAT,2.02619E+30,*************SCH 5-DIGIT 43016 FSSD,Ms. Rebecca E. Allevato,,3083 Heron Pointe Unit 101,,Columbus,OH,43231-7713,840,17,,3
FFFDDAFFFAFDADDDFFDTDFATAFAFATATFFFDFFDDTDDDFDFATDFAFFDTFTDAFTFTD,2.02619E+30,*************SCH 5-DIGIT 43016 FSSD,Ms. Elise Kremer,,3083 Heron Pointe Unit 203,,Columbus,OH,43231-7713,841,17,,3
DTDTATAADFAAATDFDDADTFFTAFDTTFTTDADDFFDFTTAAFTADAFDAAATFADTFFFTTT,2.02619E+30,*************SCH 5-DIGIT 43016 FSSD,Mr. Wei Wong,,2967 Footloose Dr.,,Columbus,OH,43231-8813,842,17,,3
TAADFTFATAFDFDFFFFDADATADFFAADDTDDFDTDDDTFFDFDTAAATAAAADTDDDTADTF,2.02619E+30,*************SCH 5-DIGIT 43016 FSSD,Mrs. Tanika Lawrence,,3311 Omega Dr.,,Columbus,OH,43231-8832,843,17,,3
DTTADTFDTFFDAAADDFAATFAAADDDAADDATDFDFTDATFDFADDAFDFDAFFATAFAFDAD,2.02619E+30,*************SCH 5-DIGIT 43016 FSSD,Mr. James Like,,4878 Allwood Ct.,,Columbus,OH,43231-8843,844,17,,3
FTADTAADAFDTATTDTADAFDAAAATTFADTFDDTFAAAFFATAFTFDDAADAADDDATTDDAF,2.02619E+30,*************SCH 5-DIGIT 43017 FSSC,Mr. and Mrs. Brent D. Crawford,,95 N. Riverview St. Unit 512,,Dublin,OH,43017-0050,845,18,##,4
ATFFDTFTAATAATTDFTTTADDDTAFFTAATFFTDFDAAFDFTATFFFDDATADDFDDTFDTFF,2.02619E+30,*************SCH 5-DIGIT 43017 FSSD,Mr. Jeffrey L. Stewart,,PO Box 218,,Dublin,OH,43017-0218,846,18,,4
AAAATDFDDADFFAAATTTFATTDFADDDAFTDTATAFFDDTFTFAATFTADAFTDFATTADFDT,2.02619E+30,*************SCH 5-DIGIT 43017 FSSD,Ms. Linda L. O'Brein,,PO Box 301,,Dublin,OH,43017-0301,847,18,,4
ADTAFATFFFAADAAFATFTTTDFATAFDDDAFFDATFTATFTATFDAAFTFAADATFTTTTDTD,2.02619E+30,*************SCH 5-DIGIT 43017 FSSC,Mr. Chun-Yu Chen,,5320 Erin Isles Ct.,,Dublin,OH,43017-1005,848,18,,4
DFATFFDAADATDDTADTADDTDTTAFFADDFATTAFTTDAAAFFADDDAATFAFAATADFTTDD,2.02619E+30,*************SCH 5-DIGIT 43017 FSSC,Dr. Pin-Yi Wang,,5320 Erin Isles Ct.,,Dublin,OH,43017-1005,849,18,,4
TADAFFADDDDAAFATFFDAAFFFFFAFTFDDFTDDDAFFFATTDFFDFDFDFDTDDDTFFFDTD,2.02619E+30,*************SCH 5-DIGIT 43017 FSSC,Mrs. Katherine Kincaid,,5356 Erin Isles Ct.,,Dublin,OH,43017-1005,850,18,,4
FADDTFFDTFFFAATTTTDDADDFDFFDFFATDAATDDTDADFTDDATTFTTTFFDTTTDTDFFT,2.02619E+30,*************SCH 5-DIGIT 43017 FSSC,Mr. and Mrs. Adam Beasley,,6731 Fallen Timbers Dr.,,Dublin,OH,43017-2853,1048,21,,4
FATFTDAFTFATFDTTFATAFDDDDFAATAFTTTDDADDDAAATFDDTTFFDDFFDADADADTFA,2.02619E+30,*************SCH 5-DIGIT 43017 FSSC,Mrs. Amanda Boggs,,6775 Fallen Timbers Dr.,,Dublin,OH,43017-2853,1049,21,,4
FADFFDAATTATFTTTFAAFFDDAAFDTFFDDTTDTDTTFATATFTATAFADAATTADFFFDDTA,2.02619E+30,*************SCH 5-DIGIT 43017 FSSC,Mr. Mark Scialabba,,6813 Fallen Timbers Dr.,,Dublin,OH,43017-2856,1050,21,,4
ADTAATDTFDDDFFDDFFTDAADDFAADTFDFTDAATTFAFDTTAFDFTTAADTADFAFFDFATF,2.02619E+30,*************SCH 5-DIGIT 43017 FSSC,Ms. Cynthia L. James,,6941 Dublin Village Dr.,,Dublin,OH,43017-2867,1051,21,,4
DDDTFATDFTDAFDTFFDFAFADFTTFAFFFFFDFAAAFTDDTDAFDFADAAFDFTDFAAAFDTD,2.02619E+30,*************SCH 5-DIGIT 43017 FSSC,Mr. and Mrs. Christopher S. Sherman,,7175 Mojave St.,,Dublin,OH,43017-2893,1052,21,,4
DAFDFDFFFTATAAATDATTFTDTFDFDTATTATFFATDDTDATDDTTTFTDFAFTAATFTDAFD,2.02619E+30,*************SCH 5-DIGIT 43017 FSSC,Mr. Richard D. Ferguson,,7202 Mojave St.,,Dublin,OH,43017-2895,1053,22,##,4
DDDFFATAFTTTFADDTFDAFAADDDTATFTAADDFDAFAADDTTFDFAADADDFDAAFTFFAFF,2.02619E+30,*************SCH 5-DIGIT 43017 FSSC,Ms. Rekha Voruganti,,8156 Davington Dr.,,Dublin,OH,43017-8416,1256,25,,4
DTTDAAAAAAADTFAFDTFATDFDATTDDDTTTFDFFDDAFFAATFFAFDAATFAAFTDDATAAA,2.02619E+30,*************SCH 5-DIGIT 43017 FSSC,Mr. and Mrs. James D. Halsey,,8168 Davington Dr.,,Dublin,OH,43017-8416,1257,25,,4
TTDFTTAADFATFTAFFTFTADDFDADFFATDTDAFDDTTFATFATDFDDAATFADDDDTTDDTF,2.02619E+30,*************SCH 5-DIGIT 43017 FSSC,Mr. Michael Purcell,,7803 Brandonway Dr.,,Dublin,OH,43017-8429,1258,25,,4
DTFADAATFAAAFTDDFAAAATFAATTFAFFDTDFDDDTTFFFDTFAFTDDFTAFDDAFDADDAF,2.02619E+30,*************SCH 5-DIGIT 43017 FSSC,Mr. and Mrs. Brent E. Stutz,,8176 Crossgate Ct. N.,,Dublin,OH,43017-8431,1259,25,,4
AAADTFAAFDFATAFTTTTTDTTFDATAFTFTDTDTTTTFFFFFFDDTDTTTFFDADTDATTFAT,2.02619E+30,*************SCH 5-DIGIT 43017 FSSC,Mr. and Mrs. Gregory E. Schneider,,8449 Greenside Dr.,,Dublin,OH,43017-8462,1260,25,,4
TAFAFFFTDDFTATAAATDDFDAAFADDFFADDAAFFFDDDFDTDADTTTTTAAATDFFFFDFAA,2.02619E+30,*************SCH 5-DIGIT 43017 FSSC,Ms. Lujain A. Alazam,,7691 Earlston Ct.,,Dublin,OH,43017-8463,1261,26,##,5
AATFADAFFDAFDTTTTAFTDTFFTAFATDDDFTFTAADFFFAFDDTTATFDAAFFFTAFATTTT,2.02619E+30,*************SCH 5-DIGIT 43017 FSSC,Mr. Rasheed Alsammerai,,7691 Earlston Ct.,,Dublin,OH,43017-8463,1262,26,,5
ATAATTAFFFFDDAFFFTTTTTAAFATDDDDDTFFDAADADDTTTTAFADAFTFFAFFTDATFFT,2.02619E+30,*************SCH 5-DIGIT 43017 FSSC,Mr. and Mrs. Thomas H. Wallace,,5031 Galway Dr.,,Dublin,OH,43017-8465,1263,26,,5
ADTTFTTAADDDADAFFDDDAATFAFAADAAAAFFTDTAATTAAAAFATATFTDTDTADDTFATA,2.02619E+30,*************SCH 5-DIGIT 43017 FSSC,Ms. Elizabeth Clothier,,7330 Badenoch Dr.,,Dublin,OH,43017-8466,1264,26,,5
TTTTDAFFFAAFDDTFATFDDTTDTTDDATADADADDADTFTTATADFDDTADFTFDATAATADD,2.02619E+30,*************SCH 5-DIGIT 43017 FSSC,Mr. and Mrs. David Gahler,,4943 Kilmurry Ct.,,Dublin,OH,43017-8483,1265,26,,5
TDDFTADFFTDTFDDDAFFDFFAFADAADFDATDDTDTFTTDAATTDFDAFAATTTAATDFFTAF,2.02619E+30,*************SCH 5-DIGIT 43017 FSSC,Ms. Jessie Ferenczy,,5008 Workingham Dr.,,Dublin,OH,43017-8484,1266,26,,5
AAADADADTAFFAAFTDTADATFTFTTDTADDDADFADTFFTTADTTDATTDDFFDFDTFFDFTA,2.02619E+30,*************SCH 5-DIGIT 43017 FSSC,Dr. A. Dee Kanonchoff,,5015 Workingham Dr.,,Dublin,OH,43017-8485,1267,26,,5
TTTDTAFAADADDTDDFAAFDTTDDATADTADADAADTDADDTTAATFTTFFAADFDDTTDTTFT,2.02619E+30,*************SCH 5-DIGIT 43017 FSSC,Ms. Camille A. Eriksen,,4973 Workingham Dr.,,Dublin,OH,43017-8485,1268,26,,5
FADDTFATFFAATFDAFTDATTAFATTFFTFDFTADTADDDATFDAFDATADDAFADATTTTFAT,2.02619E+30,*************SCH 5-DIGIT 43017 FSSC,Mr. Hsing-Chuan Tsai and Ms. Cheng-Jun Chang,,5777 Courtier Ct.,,Dublin,OH,43017-8505,1269,26,,5
ADFDFTDDADDTTDFDDFFTTAFTAFDTTTAFFDFFDFAAAAAAAFAAAADAFTAATDFDDATAD,2.02619E+30,*************SCH 5-DIGIT 43017 FSSC,Mr. and Mrs. Gary N. Nebinger,,4805 Brand Rd.,,Dublin,OH,43017-8512,1270,26,,5
TAAFADFDDAATDDTATAAADDTTDADFDTATDATFAATFFTATDTDTFTTTTAAFFFFTTTTTA,2.02619E+30,*************SCH 5-DIGIT 43017 FSSC,Mr. Kevin Kelly,,5025 Brand Rd.,,Dublin,OH,43017-8514,1271,26,,5
DFTFTFDADTTTDFFTTDAATATFFDTDTTTFDAFDFTFFADTFDDTDDAADADTFATDDDAFDA,2.02619E+30,*************SCH 5-DIGIT 43017 FSSC,Mr. and Mrs. David R. Jenkins,,5071 Brand Rd.,,Dublin,OH,43017-8514,1272,26,,5
ADADTADFFADDADADTDDDFFTAFDDDFFDADDDDDTFAADTTTAAFTAFFFDTDAFTADFFTT,2.02619E+30,*************SCH 5-DIGIT 43017 FSSC,Mr. and Mrs. Michael Price,,7447 Balfoure Cir.,,Dublin,OH,43017-8539,1273,26,,5
TDDTDTTTDATADDTFAFFTDADFTDFATDAAFFTATDFTTDDFTDFFAATADDDATTDATATAA,2.02619E+30,*************SCH 5-DIGIT 43017 FSSC,Mrs. Tina L. Price,,7447 Balfoure Cir.,,Dublin,OH,43017-8539,1274,26,,5
FATATDAATAAAFADTFTFTFDDTDTDAFFADFAFADDTDFAAFFDADADFDDATTDTATFDDDT,2.02619E+30,*************SCH 5-DIGIT 43017 FSSC,Ms. Hajer S. Badri,,7479 Balfoure Cir.,,Dublin,OH,43017-8539,1275,26,,5
FTFTAAFAAFADFADDDTTTATAADTDFDFDDTFFFTDTAFDTDTATFTDAFAADDFDFFADDDF,2.02619E+30,*************SCH 5-DIGIT 43017 FSSC,Mr. and Mrs. Jay B. Ferguson,,5815 Leven Links Ct.,,Dublin,OH,43017-8541,1276,26,,5
FDFDFADTADDDTDFDDDTTDADAFFAAADFFFDFADDFAATAFADDFDFTFFDDAAAFDFATFD,2.02619E+30,*************SCH 5-DIGIT 43017 FSSC,Ms. Gina Duros,,5959 Saint Fillans Ct. W.,,Dublin,OH,43017-8544,1277,26,,5
FTTATAFTFFFFAFTDTTTAFDAFDATFAFFTFFTTAATTDATFADDFDTAFDFFTFFAAADFFD,2.02619E+30,*************SCH 5-DIGIT 43017 FSSC,Ms. Stacie C. Hoover,,7417 Balfoure Cir.,,Dublin,OH,43017-8561,1278,26,,5
DFDDDDTDFADDDAFTADFFDFTDTDFFFDFFATFTTFFFAAADDDFDTAFDTTDAAFAFAATFA,2.02619E+30,*************SCH 5-DIGIT 43017 FSSC,Mr. and Mrs. Deepak A. Raval,,7640 Bellepoint Pl.,,Dublin,OH,43017-8567,1279,26,,5
FDAATTTATTTFDATFTDAADFDDFDAAFDTFDFFDAAAAADTTAATADAFFTTDFAADAFAADF,2.02619E+30,*************SCH 5-DIGIT 43017 FSSC,Mr. Kyle Monfort,,9383 Tartan Ridge Blvd.,,Dublin,OH,43017-8578,1280,26,,5
DTDTDTTFTADFATFFTTDDFATAFDFAFFFDADDADFTAAFFFATTAAFAFAAADFTTAADATF,2.02619E+30,*************SCH 5-DIGIT 43017 FSSD,Mrs. Martha S. Fawcett,,3710 State of Ohio Rd.,,London,OH,43140-9406,1548,31,,5
FFTDDFFTTFFFAFDADFTDATAFDATDFFDAATDDFTFDFFFFDAADDTADDDTDTFFDDFDTA,2.02619E+30,*************SCH 5-DIGIT 43017 FSSD,Mr. and Mrs. Linn Van Woerkom PhD.,,6200 State Route 56 S.E.,,London,OH,43140-9473,1549,31,,5
FDDFFAFDATFAFDDFDDTDADFDTTFAAFFFTDADTTAAFFAFAAAFDTDAATADAFADAFDTF,2.02619E+30,*************SCH 5-DIGIT 43017 FSSD,Mr. Ben Myers,,4970 State Route 56 S.E.,,London,OH,43140-9477,1550,31,,5
ADFFATATFDAFADDDADATATTAFTTFTFAFDDADDAATDFTATAAFTDAFADDTTTATDFFAA,2.02619E+30,*************SCH 5-DIGIT 43017 FSSD,Mrs. Jennifer Curtiss,,2405 Grewell Rd.,,London,OH,43140-9541,1551,31,,5
TDFTTTFTTAFATTDFFDDDDTATFAFFATTADDDTAAATFFADAFAAATDADTTFTDFTDAATF,2.02619E+30,*************SCH 5-DIGIT 43017 FSSD,Mr. and Mrs. Jesse D. Greene,,200 Byerly Rd.,,London,OH,43140-9549,1552,31,,5
TDTAFTAATAFTDAFFFFFFTTDDTTFATDFFFFDDTAAAFFTDAAAFFTAADTAAADAFTADAD,2.02619E+30,*************SCH 5-DIGIT 43017 FSSD,Ms. Barbara J. Lindsay,,38 Birchwood Dr.,,London,OH,43140-9587,1553,31,,5
DATFFDDTDADTADATTAFDFAFTDFTFFFTTTATFFADFAAFAFDATAFATFFDTFTADTDTFF,2.02619E+30,*************SCH 5-DIGIT 43017 FSSD,Mr. and Mrs. David E. Webb,,330 E. High St.,,London,OH,43140-9726,1554,31,,5
TDTFAAFTTTTFADDDFAFFFDADFFADTFATTFAFTADTFFATTATAAAFFFFFTFDFFTFFDF,2.02619E+30,*************SCH 5-DIGIT 43026 FSSD,Ms. Jacquie Sutton,Hilliard United Methodist Church,PO Box 158,,Hilliard,OH,43026-0158,1555,32,##,6
FADFTDDFATFAAAAADFDFFAAAFAFFFAAAAAAFTFFFATATFTATTTFTTTATAADDDDAAT,2.02619E+30,*************SCH 5-DIGIT 43026 FSSD,Mr. Joseph A. Chlapaty,"Advanced Drainage Systems, Inc.",4640 Trueman Blvd.,PO Box 3000,Hilliard,OH,43026-0300,1556,32,,6
AATATFDDAAAADFAADDAFDAFTAAATFTTFTAAATTFFATAADTFTTDATTTTFAFDTFTATT,2.02619E+30,*************SCH 5-DIGIT 43026 FSSD,Mr. D. Scott Barbour,"Advanced Drainage Systems, Inc.",4640 Trueman Blvd.,PO Box 3000,Hilliard,OH,43026-0300,1557,32,,6
TAFFDDTATAFDAFTTFFTAFFADDATFTAFFATFDDDFDTTDDDFADADDDTTDTTDTTADDAA,2.02619E+30,*************SCH 5-DIGIT 43026 FSSD,Ms. Lisa Hallam,"Advanced Drainage Systems, Inc.",4640 Trueman Blvd.,PO Box 3000,Hilliard,OH,43026-0300,1558,32,,6
DTTFATTTADAAFTTFADDFFFDDFTFDFFAATFDDTTAATFDFAAAFAATAFFTDDAFAADAAA,2.02619E+30,*************SCH 5-DIGIT 43026 FSSD,Mr. Patrick Puhl,Families for a Cure,PO Box 733,,Hilliard,OH,43026-0733,1559,32,,6
AAFATFTATFADDDFTAFFTTFTATATDTDFFATATDFADTFATDFADDFDDDFTAFTDDDTDTD,2.02619E+30,*************SCH 5-DIGIT 43026 FSSD,Mr. Ronald J. Hooker,,PO Box 769,,Hilliard,OH,43026-0769,1560,32,,6
TFATFFFDFFDADADTFAFDDTADTDDDFTTTAAATDATFDTDTDTFTTTATADTATAFDDAFTF,2.02619E+30,*************SCH 5-DIGIT 43026 FSSD,Mr. Charles E. McAllister,,4497 Circle Dr.,,Hilliard,OH,43026-1048,1561,32,,6
TAADDFDDAAFFDTTTTDADDAFAFTFTATTADADATAFDTTTTDDFDTAADDFFFFFFTDTFFF,2.02619E+30,*************SCH 5-DIGIT 43026 FSSD,Mr. Aaron K. Gaynor,"The Eco Plumbers, Inc.",4691 Northwest Pkwy.,,Hilliard,OH,43026-1126,1562,32,,6
,,,Any Name,,123 Any Street,,Any,State,xxxxx,,,,
,,,Any Name,,124 Any Street,,Any,State,xxxxx,,,,
,,,Any Name,,125 Any Street,,Any,State,xxxxx,,,,
